IRIDIUM 7 [-]           
1 24793U 97020B   23315.77821288  .00000676  00000+0  23078-3 0  9991
2 24793  86.3974  61.2592 0001842  97.3466 262.7939 14.34972018388421
IRIDIUM 5 [-]           
1 24795U 97020D   23315.56750969  .00004316  00000+0  42902-3 0  9999
2 24795  86.3947 350.5565 0129130  58.2565 303.1166 14.85295185398594
IRIDIUM 4 [-]           
1 24796U 97020E   23315.57582462  .00000734  00000+0  24674-3 0  9998
2 24796  86.3974  58.6090 0001949  90.1485 269.9935 14.35880017388699
IRIDIUM 914 [-]         
1 24836U 97030A   23315.84148148  .00000905  00000+0  28296-3 0  9997
2 24836  86.3937  68.8055 0002276  42.8031 317.3344 14.39695370385264
IRIDIUM 16 [-]          
1 24841U 97030F   23315.84484937  .00000880  00000+0  28692-3 0  9994
2 24841  86.4010  90.2309 0002964 137.9229 222.2197 14.37582275383426
IRIDIUM 911 [-]         
1 24842U 97030G   23315.61472382  .00001239  00000+0  34135-3 0  9999
2 24842  86.4436  89.6352 0012617 237.5861 122.4121 14.46120066390707
IRIDIUM 17 [-]          
1 24870U 97034B   23315.53679774  .00000850  00000+0  28218-3 0  9992
2 24870  86.3925 120.0299 0003582 105.4687 254.6906 14.36672604379750
IRIDIUM 920 [-]         
1 24871U 97034C   23315.48483184  .00000982  00000+0  30305-3 0  9991
2 24871  86.3943 100.6357 0010856 196.7992 163.2850 14.40394227382523
